OBJECT_NAME,OBJECT_ID,EPOCH,MEAN_MOTION,ECCENTRICITY,INCLINATION,RA_OF_ASC_NODE,ARG_OF_PERICENTER,MEAN_ANOMALY,EPHEMERIS_TYPE,CLASSIFICATION_TYPE,NORAD_CAT_ID,ELEMENT_SET_NO,REV_AT_EPOCH,BSTAR,MEAN_MOTION_DOT,MEAN_MOTION_DDOT
ONEWEB-0534,2023-029B,2026-06-14T06:36:12.373344,13.20771365,.0001862,87.9183,275.0502,100.3350,259.7994,0,U,55797,999,16076,.16438375E-3,.8E-6,0
ONEWEB-0556,2023-029C,2026-06-14T06:45:54.229824,13.20773834,.00017031,87.9182,275.0483,74.2807,285.8514,0,U,55798,999,16076,.15963967E-3,.78E-6,0
ONEWEB-0562,2023-029D,2026-06-14T06:26:30.286176,13.20770738,.00023903,87.9184,275.0319,80.2910,279.8493,0,U,55799,999,16076,.44277829E-4,.31E-6,0
ONEWEB-0563,2023-029E,2026-06-14T06:19:14.690208,13.20775585,.00017513,87.9183,275.0634,102.4218,257.7112,0,U,55800,999,16075,-.20321527E-2,-.813E-5,0
ONEWEB-0564,2023-029F,2026-06-14T06:09:32.954688,13.20771120,.00022002,87.9184,275.0381,91.0597,269.0788,0,U,55801,999,16076,.2172711E-3,.101E-5,0
ONEWEB-0638,2023-029G,2026-06-14T01:03:13.365216,13.14494395,.00016964,87.8953,290.3783,84.5443,275.5881,0,U,55802,999,15898,.57178643E-2,.2133E-4,0
ONEWEB-0639,2023-029H,2026-06-14T03:37:15.983616,13.19725343,.0001144,87.9166,305.5808,125.6595,234.4645,0,U,55803,999,15850,-.28301981E-4,.2E-7,0
ONEWEB-0640,2023-029J,2026-06-14T06:45:43.630272,13.14502540,.00014223,87.8953,290.3219,81.3816,278.7475,0,U,55804,999,15903,-.61994504E-4,-.1E-6,0
ONEWEB-0641,2023-029K,2026-06-13T22:02:54.136032,13.19724876,.0001732,87.9174,305.6160,102.3718,257.7609,0,U,55805,999,15848,-.85317E-4,-.21E-6,0
ONEWEB-0642,2023-029L,2026-06-14T07:01:58.156608,13.19724741,.00014514,87.9168,305.5536,124.6136,235.5134,0,U,55806,999,15852,.40181282E-4,.29E-6,0
ONEWEB-0643,2023-029M,2026-06-13T20:54:18.276768,13.14503310,.00017908,87.8951,290.3911,121.8736,238.2568,0,U,55807,999,15895,.5636112E-3,.222E-5,0
ONEWEB-0644,2023-029N,2026-06-14T06:55:08.179968,13.19724690,.00016641,87.9165,305.5560,108.6130,251.5183,0,U,55808,999,15852,.27346822E-3,.122E-5,0
ONEWEB-0645,2023-029P,2026-06-14T07:26:58.662816,13.19724408,.00013761,87.9166,305.5484,97.2679,262.8610,0,U,55809,999,15852,.9998001E-5,.17E-6,0
ONEWEB-0646,2023-029Q,2026-06-14T02:24:29.293056,13.19724789,.00017248,87.9165,305.5907,106.7745,253.3577,0,U,55810,999,15848,-.17149006E-4,.6E-7,0
ONEWEB-0648,2023-029R,2026-06-14T07:06:15.210432,13.14501912,.00010541,87.8965,290.2798,114.6966,245.4273,0,U,55811,999,15901,-.22188924E-3,-.69E-6,0
ONEWEB-0649,2023-029S,2026-06-14T03:00:51.834816,13.19724933,.00015802,87.9165,305.5834,100.3070,259.8241,0,U,55812,999,15852,.10234296E-3,.54E-6,0
ONEWEB-0650,2023-029T,2026-06-14T02:54:01.472832,13.19724747,.0001493,87.9165,305.5868,113.9908,246.1381,0,U,55813,999,15849,.136468E-3,.68E-6,0
ONEWEB-0652,2023-029U,2026-06-14T06:38:51.352800,13.14504218,.00020412,87.8959,290.2908,98.8797,261.2564,0,U,55814,999,15898,.45460575E-4,.3E-6,0
ONEWEB-0653,2023-029V,2026-06-14T06:16:02.121888,13.14503415,.00018767,87.8961,290.2919,96.8990,263.2353,0,U,55815,999,15901,.78331143E-3,.303E-5,0
ONEWEB-0654,2023-029W,2026-06-14T06:09:11.240640,13.14503702,.0002144,87.8960,290.2889,93.5192,266.6183,0,U,55816,999,15903,.62463195E-3,.244E-5,0
ONEWEB-0656,2023-029X,2026-06-14T05:59:50.923680,13.20772985,.00023164,87.9195,275.0150,93.1852,266.9547,0,U,55817,999,16076,.27699111E-3,.126E-5,0
ONEWEB-0657,2023-029Y,2026-06-13T21:19:42.100608,13.19724242,.0002503,87.9166,305.6317,104.5695,255.5715,0,U,55818,999,15847,-.73228E-5,.1E-6,0
ONEWEB-0658,2023-029Z,2026-06-14T04:29:34.791936,13.19724557,.00016299,87.9175,305.5473,109.8539,250.2769,0,U,55819,999,15852,.39652043E-4,.29E-6,0
ONEWEB-0660,2023-029AA,2026-06-14T07:26:49.477632,13.14503672,.00015672,87.8970,290.2712,96.4581,263.6727,0,U,55820,999,15902,-.24028241E-3,-.76E-6,0
ONEWEB-0661,2023-029AB,2026-06-14T06:27:28.075680,13.14502703,.00016508,87.8953,290.3246,92.8593,267.2726,0,U,55821,999,15900,.48805496E-3,.194E-5,0
ONEWEB-0662,2023-029AC,2026-06-14T01:48:52.095744,13.14502418,.00015747,87.8949,290.3695,96.7134,263.4175,0,U,55822,999,15902,-.53333237E-3,-.185E-5,0
ONEWEB-0663,2023-029AD,2026-06-14T06:48:40.904928,13.20869311,.00015248,87.9197,275.0800,104.8558,255.2744,0,U,55823,999,16076,.22725502E-3,.106E-5,0
ONEWEB-0664,2023-029AE,2026-06-14T07:29:32.321760,13.20770511,.00018296,87.9181,275.0557,86.0905,274.0437,0,U,55824,999,16076,.92078989E-4,.5E-6,0
ONEWEB-0665,2023-029AF,2026-06-13T21:14:51.213408,13.14502850,.0001544,87.8954,290.3820,100.0291,260.1013,0,U,55825,999,15897,.33496E-3,.137E-5,0
ONEWEB-0666,2023-029AG,2026-06-14T05:30:45.234144,13.20771652,.00026452,87.9182,275.0619,106.8419,253.3005,0,U,55826,999,16076,.17090134E-3,.82E-6,0
