ONEWEB-0534             
1 55797U 23029B   26165.27514321  .00000080  00000+0  16438-3 0  9996
2 55797  87.9183 275.0502 0001862 100.3350 259.7994 13.20771365160761
ONEWEB-0556             
1 55798U 23029C   26165.28187766  .00000078  00000+0  15964-3 0  9997
2 55798  87.9182 275.0483 0001703  74.2807 285.8514 13.20773834160760
ONEWEB-0562             
1 55799U 23029D   26165.26840609  .00000031  00000+0  44278-4 0  9998
2 55799  87.9184 275.0319 0002390  80.2910 279.8493 13.20770738160765
ONEWEB-0563             
1 55800U 23029E   26165.26336447 -.00000813  00000+0 -20322-2 0  9993
2 55800  87.9183 275.0634 0001751 102.4218 257.7112 13.20775585160752
ONEWEB-0564             
1 55801U 23029F   26165.25663142  .00000101  00000+0  21727-3 0  9997
2 55801  87.9184 275.0381 0002200  91.0597 269.0788 13.20771120160763
ONEWEB-0638             
1 55802U 23029G   26165.04390469  .00002133  00000+0  57179-2 0  9990
2 55802  87.8953 290.3783 0001696  84.5443 275.5881 13.14494395158984
ONEWEB-0639             
1 55803U 23029H   26165.15087944  .00000002  00000+0 -28302-4 0  9996
2 55803  87.9166 305.5808 0001144 125.6595 234.4645 13.19725343158507
ONEWEB-0640             
1 55804U 23029J   26165.28175498 -.00000010  00000+0 -61995-4 0  9998
2 55804  87.8953 290.3219 0001422  81.3816 278.7475 13.14502540159039
ONEWEB-0641             
1 55805U 23029K   26164.91868213 -.00000021  00000+0 -85317-4 0  9998
2 55805  87.9174 305.6160 0001732 102.3718 257.7609 13.19724876158487
ONEWEB-0642             
1 55806U 23029L   26165.29303422  .00000029  00000+0  40181-4 0  9993
2 55806  87.9168 305.5536 0001451 124.6136 235.5134 13.19724741158529
ONEWEB-0643             
1 55807U 23029M   26164.87104487  .00000222  00000+0  56361-3 0  9998
2 55807  87.8951 290.3911 0001790 121.8736 238.2568 13.14503310158958
ONEWEB-0644             
1 55808U 23029N   26165.28828912  .00000122  00000+0  27347-3 0  9992
2 55808  87.9165 305.5560 0001664 108.6130 251.5183 13.19724690158522
ONEWEB-0645             
1 55809U 23029P   26165.31040119  .00000017  00000+0  99980-5 0  9999
2 55809  87.9166 305.5484 0001376  97.2679 262.8610 13.19724408158527
ONEWEB-0646             
1 55810U 23029Q   26165.10033904  .00000006  00000+0 -17149-4 0  9997
2 55810  87.9165 305.5907 0001724 106.7745 253.3577 13.19724789158489
ONEWEB-0648             
1 55811U 23029R   26165.29600938 -.00000069  00000+0 -22189-3 0  9994
2 55811  87.8965 290.2798 0001054 114.6966 245.4273 13.14501912159015
ONEWEB-0649             
1 55812U 23029S   26165.12559994  .00000054  00000+0  10234-3 0  9992
2 55812  87.9165 305.5834 0001580 100.3070 259.8241 13.19724933158526
ONEWEB-0650             
1 55813U 23029T   26165.12085038  .00000068  00000+0  13647-3 0  9992
2 55813  87.9165 305.5868 0001493 113.9908 246.1381 13.19724747158490
ONEWEB-0652             
1 55814U 23029U   26165.27698325  .00000030  00000+0  45461-4 0  9997
2 55814  87.8959 290.2908 0002041  98.8797 261.2564 13.14504218158982
ONEWEB-0653             
1 55815U 23029V   26165.26113567  .00000303  00000+0  78331-3 0  9991
2 55815  87.8961 290.2919 0001876  96.8990 263.2353 13.14503415159017
ONEWEB-0654             
1 55816U 23029W   26165.25638010  .00000244  00000+0  62463-3 0  9999
2 55816  87.8960 290.2889 0002144  93.5192 266.6183 13.14503702159039
ONEWEB-0656             
1 55817U 23029X   26165.24989495  .00000126  00000+0  27699-3 0  9996
2 55817  87.9195 275.0150 0002316  93.1852 266.9547 13.20772985160760
ONEWEB-0657             
1 55818U 23029Y   26164.88868172  .00000010  00000+0 -73228-5 0  9998
2 55818  87.9166 305.6317 0002503 104.5695 255.5715 13.19724242158471
ONEWEB-0658             
1 55819U 23029Z   26165.18720824  .00000029  00000+0  39652-4 0  9995
2 55819  87.9175 305.5473 0001629 109.8539 250.2769 13.19724557158523
ONEWEB-0660             
1 55820U 23029AA  26165.31029488 -.00000076  00000+0 -24028-3 0  9994
2 55820  87.8970 290.2712 0001567  96.4581 263.6727 13.14503672159028
ONEWEB-0661             
1 55821U 23029AB  26165.26907495  .00000194  00000+0  48805-3 0  9990
2 55821  87.8953 290.3246 0001650  92.8593 267.2726 13.14502703159000
ONEWEB-0662             
1 55822U 23029AC  26165.07560296 -.00000185  00000+0 -53333-3 0  9998
2 55822  87.8949 290.3695 0001574  96.7134 263.4175 13.14502418159024
ONEWEB-0663             
1 55823U 23029AD  26165.28380677  .00000106  00000+0  22726-3 0  9998
2 55823  87.9197 275.0800 0001524 104.8558 255.2744 13.20869311160764
ONEWEB-0664             
1 55824U 23029AE  26165.31217965  .00000050  00000+0  92079-4 0  9999
2 55824  87.9181 275.0557 0001829  86.0905 274.0437 13.20770511160763
ONEWEB-0665             
1 55825U 23029AF  26164.88531497  .00000137  00000+0  33496-3 0  9993
2 55825  87.8954 290.3820 0001544 100.0291 260.1013 13.14502850158971
ONEWEB-0666             
1 55826U 23029AG  26165.22969021  .00000082  00000+0  17090-3 0  9992
2 55826  87.9182 275.0619 0002645 106.8419 253.3005 13.20771652160761
